{"type": "FeatureCollection", "features": [ {"type": "Feature", "properties": {"norad_id": 37867, "name": "COSMOS 2476 (744)", "group": "gnss", "lat": 8.66818610437201, "lon": -105.24301005714482, "alt_km": 19102.62959963669, "timestamp": "2025-12-24T03:53:29.890158+00:00", "meta": {"OBJECT_NAME": "COSMOS 2476 (744)", "OBJECT_ID": "2011-064A", "EPOCH": "2025-12-23T12:51:54.046080", "MEAN_MOTION": 2.13103692, "ECCENTRICITY": 0.002455, "INCLINATION": 65.1675, "RA_OF_ASC_NODE": 78.8064, "ARG_OF_PERICENTER": 235.5255, "MEAN_ANOMALY": 174.828, "EPHEMERIS_TYPE": 0, "CLASSIFICATION_TYPE": "U", "NORAD_CAT_ID": 37867, "ELEMENT_SET_NO": 999, "REV_AT_EPOCH": 11002, "BSTAR": 0, "MEAN_MOTION_DOT": 1e-08, "MEAN_MOTION_DDOT": 0}, "tle": {"line1": "1 37867U 11064A   25357.53604220  .00000001  00000+0  00000+0 0  9996", "line2": "2 37867  65.1675  78.8064 0024550 235.5255 174.8280  2.13103692110020"}}, "geometry": {"type": "Point", "coordinates": [-105.24301005714482, 8.66818610437201]}}, {"type": "Feature", "properties": {"norad_id": 37868, "name": "COSMOS 2477 (745)", "group": "gnss", "lat": -7.4798969712254415, "lon": 75.39712656697861, "alt_km": 19155.700883281326, "timestamp": "2025-12-24T03:53:29.890172+00:00", "meta": {"OBJECT_NAME": "COSMOS 2477 (745)", "OBJECT_ID": "2011-064B", "EPOCH": "2025-12-23T05:19:57.056160", "MEAN_MOTION": 2.13103036, "ECCENTRICITY": 0.00215459, "INCLINATION": 65.1742, "RA_OF_ASC_NODE": 78.8944, "ARG_OF_PERICENTER": 235.4149, "MEAN_ANOMALY": 115.0574, "EPHEMERIS_TYPE": 0, "CLASSIFICATION_TYPE": "U", "NORAD_CAT_ID": 37868, "ELEMENT_SET_NO": 999, "REV_AT_EPOCH": 11000, "BSTAR": 0, "MEAN_MOTION_DOT": 0, "MEAN_MOTION_DDOT": 0}, "tle": {"line1": "1 37868U 11064B   25357.22218815  .00000000  00000+0  00000+0 0  9993", "line2": "2 37868  65.1742  78.8944 0021545 235.4149 115.0574  2.13103036110008"}}, "geometry": {"type": "Point", "coordinates": [75.39712656697861, -7.4798969712254415]}}, {"type": "Feature", "properties": {"norad_id": 37869, "name": "COSMOS 2475 (743)", "group": "gnss", "lat": -45.91450077123017, "lon": 50.40543368150785, "alt_km": 19099.849123102664, "timestamp": "2025-12-24T03:53:29.890185+00:00", "meta": {"OBJECT_NAME": "COSMOS 2475 (743)", "OBJECT_ID": "2011-064C", "EPOCH": "2025-12-23T06:48:57.377088", "MEAN_MOTION": 2.13101654, "ECCENTRICITY": 0.00266814, "INCLINATION": 65.1811, "RA_OF_ASC_NODE": 78.9126, "ARG_OF_PERICENTER": 249.1292, "MEAN_ANOMALY": 104.6561, "EPHEMERIS_TYPE": 0, "CLASSIFICATION_TYPE": "U", "NORAD_CAT_ID": 37869, "ELEMENT_SET_NO": 999, "REV_AT_EPOCH": 11001, "BSTAR": 0, "MEAN_MOTION_DOT": 1e-08, "MEAN_MOTION_DDOT": 0}, "tle": {"line1": "1 37869U 11064C   25357.28399742  .00000001  00000+0  00000+0 0  9990", "line2": "2 37869  65.1811  78.9126 0026681 249.1292 104.6561  2.13101654110011"}}, "geometry": {"type": "Point", "coordinates": [50.40543368150785, -45.91450077123017]}}, {"type": "Feature", "properties": {"norad_id": 37948, "name": "BEIDOU-2 IGSO-5 (C10)", "group": "gnss", "lat": -20.202912654896753, "lon": -105.60472386243994, "alt_km": 35940.319119880274, "timestamp": "2025-12-24T03:53:29.890197+00:00", "meta": {"OBJECT_NAME": "BEIDOU-2 IGSO-5 (C10)", "OBJECT_ID": "2011-073A", "EPOCH": "2025-12-23T15:38:27.014784", "MEAN_MOTION": 1.00288757, "ECCENTRICITY": 0.0109744, "INCLINATION": 47.9999, "RA_OF_ASC_NODE": 273.7252, "ARG_OF_PERICENTER": 222.2004, "MEAN_ANOMALY": 284.7176, "EPHEMERIS_TYPE": 0, "CLASSIFICATION_TYPE": "U", "NORAD_CAT_ID": 37948, "ELEMENT_SET_NO": 999, "REV_AT_EPOCH": 5137, "BSTAR": 0, "MEAN_MOTION_DOT": -1.38e-06, "MEAN_MOTION_DDOT": 0}, "tle": {"line1": "1 37948U 11073A   25357.65170156 -.00000138  00000+0  00000+0 0  9997", "line2": "2 37948  47.9999 273.7252 0109744 222.2004 284.7176  1.00288757 51374"}}, "geometry": {"type": "Point", "coordinates": [-105.60472386243994, -20.202912654896753]}}, {"type": "Feature", "properties": {"norad_id": 37951, "name": "LUCH 5A (SDCM/PRN 140)", "group": "gnss", "lat": -7.3480694899650265, "lon": -41.85768212261323, "alt_km": 35773.91177536531, "timestamp": "2025-12-24T03:53:29.890211+00:00", "meta": {"OBJECT_NAME": "LUCH 5A (SDCM/PRN 140)", "OBJECT_ID": "2011-074B", "EPOCH": "2025-12-23T07:10:58.869408", "MEAN_MOTION": 1.0026906, "ECCENTRICITY": 0.00051752, "INCLINATION": 8.3049, "RA_OF_ASC_NODE": 76.4293, "ARG_OF_PERICENTER": 191.1681, "MEAN_ANOMALY": 99.2782, "EPHEMERIS_TYPE": 0, "CLASSIFICATION_TYPE": "U", "NORAD_CAT_ID": 37951, "ELEMENT_SET_NO": 999, "REV_AT_EPOCH": 5128, "BSTAR": 0, "MEAN_MOTION_DOT": -3.2e-07, "MEAN_MOTION_DDOT": 0}, "tle": {"line1": "1 37951U 11074B   25357.29929247 -.00000032  00000+0  00000+0 0  9998", "line2": "2 37951   8.3049  76.4293 0005175 191.1681  99.2782  1.00269060 51284"}}, "geometry": {"type": "Point", "coordinates": [-41.85768212261323, -7.3480694899650265]}}, {"type": "Feature", "properties": {"norad_id": 38091, "name": "BEIDOU-2 G5 (C05)", "group": "gnss", "lat": 2.04249425051645, "lon": -150.0538608021846, "alt_km": 35788.844476152946, "timestamp": "2025-12-24T03:53:29.890224+00:00", "meta": {"OBJECT_NAME": "BEIDOU-2 G5 (C05)", "OBJECT_ID": "2012-008A", "EPOCH": "2025-12-23T20:15:33.482592", "MEAN_MOTION": 1.00269682, "ECCENTRICITY": 0.0013063, "INCLINATION": 3.1351, "RA_OF_ASC_NODE": 70.6688, "ARG_OF_PERICENTER": 232.0754, "MEAN_ANOMALY": 152.516, "EPHEMERIS_TYPE": 0, "CLASSIFICATION_TYPE": "U", "NORAD_CAT_ID": 38091, "ELEMENT_SET_NO": 999, "REV_AT_EPOCH": 5061, "BSTAR": 0, "MEAN_MOTION_DOT": 7.7e-07, "MEAN_MOTION_DDOT": 0}, "tle": {"line1": "1 38091U 12008A   25357.84413753  .00000077  00000+0  00000+0 0  9991", "line2": "2 38091   3.1351  70.6688 0013063 232.0754 152.5160  1.00269682 50613"}}, "geometry": {"type": "Point", "coordinates": [-150.0538608021846, 2.04249425051645]}}, {"type": "Feature", "properties": {"norad_id": 38250, "name": "BEIDOU-2 M3 (C11)", "group": "gnss", "lat": 12.08024106365744, "lon": -40.92005110052032, "alt_km": 21537.387399921306, "timestamp": "2025-12-24T03:53:29.890235+00:00", "meta": {"OBJECT_NAME": "BEIDOU-2 M3 (C11)", "OBJECT_ID": "2012-018A", "EPOCH": "2025-12-23T14:28:50.284992", "MEAN_MOTION": 1.86230163, "ECCENTRICITY": 0.0024102, "INCLINATION": 55.911, "RA_OF_ASC_NODE": 310.7927, "ARG_OF_PERICENTER": 275.3746, "MEAN_ANOMALY": 84.3517, "EPHEMERIS_TYPE": 0, "CLASSIFICATION_TYPE": "U", "NORAD_CAT_ID": 38250, "ELEMENT_SET_NO": 999, "REV_AT_EPOCH": 9267, "BSTAR": 0, "MEAN_MOTION_DOT": -5.4e-07, "MEAN_MOTION_DDOT": 0}, "tle": {"line1": "1 38250U 12018A   25357.60335978 -.00000054  00000+0  00000+0 0  9991", "line2": "2 38250  55.9110 310.7927 0024102 275.3746  84.3517  1.86230163 92675"}}, "geometry": {"type": "Point", "coordinates": [-40.92005110052032, 12.08024106365744]}}, {"type": "Feature", "properties": {"norad_id": 38251, "name": "BEIDOU-2 M4 (C12)", "group": "gnss", "lat": 45.841750562554886, "lon": -5.64732442381431, "alt_km": 21555.680191931096, "timestamp": "2025-12-24T03:53:29.890247+00:00", "meta": {"OBJECT_NAME": "BEIDOU-2 M4 (C12)", "OBJECT_ID": "2012-018B", "EPOCH": "2025-12-21T22:11:20.549760", "MEAN_MOTION": 1.86229896, "ECCENTRICITY": 0.00152556, "INCLINATION": 55.8135, "RA_OF_ASC_NODE": 310.0771, "ARG_OF_PERICENTER": 279.1681, "MEAN_ANOMALY": 80.6551, "EPHEMERIS_TYPE": 0, "CLASSIFICATION_TYPE": "U", "NORAD_CAT_ID": 38251, "ELEMENT_SET_NO": 999, "REV_AT_EPOCH": 9264, "BSTAR": 0, "MEAN_MOTION_DOT": -6e-07, "MEAN_MOTION_DDOT": 0}, "tle": {"line1": "1 38251U 12018B   25355.92454340 -.00000060  00000+0  00000+0 0  9997", "line2": "2 38251  55.8135 310.0771 0015255 279.1681  80.6551  1.86229896 92646"}}, "geometry": {"type": "Point", "coordinates": [-5.64732442381431, 45.841750562554886]}}, {"type": "Feature", "properties": {"norad_id": 38652, "name": "SES-5 (EGNOS/PRN 136)", "group": "gnss", "lat": -0.02059297118637787, "lon": 156.27830560826294, "alt_km": 35789.18457429217, "timestamp": "2025-12-24T03:53:29.890259+00:00", "meta": {"OBJECT_NAME": "SES-5 (EGNOS/PRN 136)", "OBJECT_ID": "2012-036A", "EPOCH": "2025-12-23T18:17:29.639904", "MEAN_MOTION": 1.00271888, "ECCENTRICITY": 0.0001862, "INCLINATION": 0.0604, "RA_OF_ASC_NODE": 303.5892, "ARG_OF_PERICENTER": 326.2046, "MEAN_ANOMALY": 102.1152, "EPHEMERIS_TYPE": 0, "CLASSIFICATION_TYPE": "U", "NORAD_CAT_ID": 38652, "ELEMENT_SET_NO": 999, "REV_AT_EPOCH": 4269, "BSTAR": 0, "MEAN_MOTION_DOT": 5.5e-07, "MEAN_MOTION_DDOT": 0}, "tle": {"line1": "1 38652U 12036A   25357.76214861  .00000055  00000+0  00000+0 0  9991", "line2": "2 38652   0.0604 303.5892 0001862 326.2046 102.1152  1.00271888 42694"}}, "geometry": {"type": "Point", "coordinates": [156.27830560826294, -0.02059297118637787]}}, {"type": "Feature", "properties": {"norad_id": 38775, "name": "BEIDOU-2 M6 (C14)", "group": "gnss", "lat": -53.15922363798326, "lon": -48.83999280122416, "alt_km": 21533.490631175555, "timestamp": "2025-12-24T03:53:29.890271+00:00", "meta": {"OBJECT_NAME": "BEIDOU-2 M6 (C14)", "OBJECT_ID": "2012-050B", "EPOCH": "2025-12-23T05:54:39.234816", "MEAN_MOTION": 1.86230862, "ECCENTRICITY": 0.00114449, "INCLINATION": 56.3871, "RA_OF_ASC_NODE": 68.7189, "ARG_OF_PERICENTER": 343.1863, "MEAN_ANOMALY": 16.829, "EPHEMERIS_TYPE": 0, "CLASSIFICATION_TYPE": "U", "NORAD_CAT_ID": 38775, "ELEMENT_SET_NO": 999, "REV_AT_EPOCH": 9003, "BSTAR": 0, "MEAN_MOTION_DOT": -2.5e-07, "MEAN_MOTION_DDOT": 0}, "tle": {"line1": "1 38775U 12050B   25357.24628744 -.00000025  00000+0  00000+0 0  9993", "line2": "2 38775  56.3871  68.7189 0011444 343.1863  16.8290  1.86230862 90037"}}, "geometry": {"type": "Point", "coordinates": [-48.83999280122416, -53.15922363798326]}}]}